start=new Date('2023-01-25T00:00:00.000Z').valueOf();
sats=[{"NORAD_CAT_ID":"51789","MEAN_ANOMALY":"259.4576","SEMIMAJOR_AXIS":"6917.875","RA_OF_ASC_NODE":"68.0664","INCLINATION":"53.2177","EPHEMERIS_TYPE":"0","GP_ID":"223637212","ELEMENT_SET_NO":"999","OBJECT_TYPE":"PAYLOAD","MEAN_MOTION_DDOT":"0.0000000000000","CENTER_NAME":"EARTH","ARG_OF_PERICENTER":"100.6602","PERIOD":"95.437","MEAN_ELEMENT_THEORY":"SGP4","SITE":"AFWTR","EPOCH":"2023-01-24T09:41:29.702400","FILE":"3759906","MEAN_MOTION_DOT":"-0.00000573","TLE_LINE2":"2 51789  53.2177  68.0664 0001649 100.6602 259.4576 15.08841855 51786","TIME_SYSTEM":"UTC","DECAY_DATE":null,"RCS_SIZE":"LARGE","OBJECT_ID":"2022-017X","PERIAPSIS":"538.599","APOAPSIS":"540.880","CLASSIFICATION_TYPE":"U","REF_FRAME":"TEME","BSTAR":"-0.00001787800000","TLE_LINE1":"1 51789U 22017X   23024.40381600 -.00000573  00000-0 -17878-4 0  9997","COUNTRY_CODE":"US","OBJECT_NAME":"STARLINK-3639","ECCENTRICITY":"0.00016490","MEAN_MOTION":"15.08841855","REV_AT_EPOCH":"5178","LAUNCH_DATE":"2022-02-25"},{"REF_FRAME":"TEME","CLASSIFICATION_TYPE":"U","APOAPSIS":"540.604","PERIAPSIS":"538.801","OBJECT_ID":"2022-017Y","DECAY_DATE":null,"RCS_SIZE":"LARGE","TIME_SYSTEM":"UTC","TLE_LINE2":"2 51790  53.2152  67.5526 0001303  93.8359 266.2782 15.08854158 51843","MEAN_MOTION_DOT":"0.00005130","LAUNCH_DATE":"2022-02-25","REV_AT_EPOCH":"5184","ECCENTRICITY":"0.00013030","MEAN_MOTION":"15.08854158","OBJECT_NAME":"STARLINK-3631","COUNTRY_CODE":"US","TLE_LINE1":"1 51790U 22017Y   23024.51789227  .00005130  00000-0  34001-3 0  9996","BSTAR":"0.00034001000000","ELEMENT_SET_NO":"999","EPHEMERIS_TYPE":"0","GP_ID":"223643216","INCLINATION":"53.2152","SEMIMAJOR_AXIS":"6917.837","RA_OF_ASC_NODE":"67.5526","NORAD_CAT_ID":"51790","MEAN_ANOMALY":"266.2782","FILE":"3760224","EPOCH":"2023-01-24T12:25:45.892128","SITE":"AFWTR","PERIOD":"95.437","MEAN_ELEMENT_THEORY":"SGP4","ARG_OF_PERICENTER":"93.8359","CENTER_NAME":"EARTH","MEAN_MOTION_DDOT":"0.0000000000000","OBJECT_TYPE":"PAYLOAD"},{"PERIAPSIS":"538.663","CLASSIFICATION_TYPE":"U","APOAPSIS":"540.820","REF_FRAME":"TEME","MEAN_MOTION_DOT":"0.00003056","TLE_LINE2":"2 51791  53.2160  68.6960 0001559  86.6345 273.4826 15.08841228 51758","TIME_SYSTEM":"UTC","OBJECT_ID":"2022-017Z","RCS_SIZE":"LARGE","DECAY_DATE":null,"COUNTRY_CODE":"US","MEAN_MOTION":"15.08841228","ECCENTRICITY":"0.00015590","OBJECT_NAME":"STARLINK-3602","LAUNCH_DATE":"2022-02-25","REV_AT_EPOCH":"5175","BSTAR":"0.00021002000000","TLE_LINE1":"1 51791U 22017Z   23024.26397642  .00003056  00000-0  21002-3 0  9997","INCLINATION":"53.2160","ELEMENT_SET_NO":"999","GP_ID":"223631785","EPHEMERIS_TYPE":"0","MEAN_ANOMALY":"273.4826","NORAD_CAT_ID":"51791","RA_OF_ASC_NODE":"68.6960","SEMIMAJOR_AXIS":"6917.877","EPOCH":"2023-01-24T06:20:07.562688","FILE":"3759670","OBJECT_TYPE":"PAYLOAD","CENTER_NAME":"EARTH","MEAN_MOTION_DDOT":"0.0000000000000","ARG_OF_PERICENTER":"86.6345","SITE":"AFWTR","PERIOD":"95.437","MEAN_ELEMENT_THEORY":"SGP4"},{"ELEMENT_SET_NO":"999","GP_ID":"223631781","EPHEMERIS_TYPE":"0","INCLINATION":"53.2139","SEMIMAJOR_AXIS":"6917.899","RA_OF_ASC_NODE":"69.3816","NORAD_CAT_ID":"51792","MEAN_ANOMALY":"301.2763","FILE":"3759670","EPOCH":"2023-01-24T02:42:51.777792","SITE":"AFWTR","MEAN_ELEMENT_THEORY":"SGP4","PERIOD":"95.438","ARG_OF_PERICENTER":"58.8382","CENTER_NAME":"EARTH","MEAN_MOTION_DDOT":"0.0000000000000","OBJECT_TYPE":"PAYLOAD","REF_FRAME":"TEME","CLASSIFICATION_TYPE":"U","APOAPSIS":"540.843","PERIAPSIS":"538.686","OBJECT_ID":"2022-017AA","DECAY_DATE":null,"RCS_SIZE":"LARGE","TIME_SYSTEM":"UTC","TLE_LINE2":"2 51792  53.2139  69.3816 0001559  58.8382 301.2763 15.08833906 51782","MEAN_MOTION_DOT":"0.00004367","LAUNCH_DATE":"2022-02-25","REV_AT_EPOCH":"5178","MEAN_MOTION":"15.08833906","ECCENTRICITY":"0.00015590","OBJECT_NAME":"STARLINK-3626","COUNTRY_CODE":"US","TLE_LINE1":"1 51792U 22017AA  23024.11309928  .00004367  00000-0  29235-3 0  9994","BSTAR":"0.00029235000000"},{"INCLINATION":"53.2141","ELEMENT_SET_NO":"999","GP_ID":"223631603","EPHEMERIS_TYPE":"0","NORAD_CAT_ID":"51793","MEAN_ANOMALY":"255.6735","RA_OF_ASC_NODE":"68.7183","SEMIMAJOR_AXIS":"6917.899","EPOCH":"2023-01-24T06:14:49.728192","FILE":"3759671","OBJECT_TYPE":"PAYLOAD","CENTER_NAME":"EARTH","MEAN_MOTION_DDOT":"0.0000000000000","ARG_OF_PERICENTER":"104.4413","SITE":"AFWTR","PERIOD":"95.438","MEAN_ELEMENT_THEORY":"SGP4","PERIAPSIS":"538.796","CLASSIFICATION_TYPE":"U","APOAPSIS":"540.733","REF_FRAME":"TEME","MEAN_MOTION_DOT":"0.00000119","TLE_LINE2":"2 51793  53.2141  68.7183 0001400 104.4413 255.6735 15.08833864 51801","TIME_SYSTEM":"UTC","OBJECT_ID":"2022-017AB","DECAY_DATE":null,"RCS_SIZE":"LARGE","COUNTRY_CODE":"US","ECCENTRICITY":"0.00014000","MEAN_MOTION":"15.08833864","OBJECT_NAME":"STARLINK-3633","LAUNCH_DATE":"2022-02-25","REV_AT_EPOCH":"5180","BSTAR":"0.00002556900000","TLE_LINE1":"1 51793U 22017AB  23024.26029778  .00000119  00000-0  25569-4 0  9991"},{"INCLINATION":"53.2163","ELEMENT_SET_NO":"999","EPHEMERIS_TYPE":"0","GP_ID":"223632212","NORAD_CAT_ID":"51794","MEAN_ANOMALY":"299.1669","SEMIMAJOR_AXIS":"6917.872","RA_OF_ASC_NODE":"67.9143","EPOCH":"2023-01-24T10:29:11.419008","FILE":"3759711","CENTER_NAME":"EARTH","MEAN_MOTION_DDOT":"0.0000000000000","OBJECT_TYPE":"PAYLOAD","SITE":"AFWTR","MEAN_ELEMENT_THEORY":"SGP4","PERIOD":"95.437","ARG_OF_PERICENTER":"60.9497","PERIAPSIS":"538.538","REF_FRAME":"TEME","CLASSIFICATION_TYPE":"U","APOAPSIS":"540.936","TLE_LINE2":"2 51794  53.2163  67.9143 0001733  60.9497 299.1669 15.08842819 51786","MEAN_MOTION_DOT":"0.00000820","OBJECT_ID":"2022-017AC","RCS_SIZE":"LARGE","DECAY_DATE":null,"TIME_SYSTEM":"UTC","COUNTRY_CODE":"US","LAUNCH_DATE":"2022-02-25","REV_AT_EPOCH":"5178","MEAN_MOTION":"15.08842819","ECCENTRICITY":"0.00017330","OBJECT_NAME":"STARLINK-3573","BSTAR":"0.00006958900000","TLE_LINE1":"1 51794U 22017AC  23024.43693772  .00000820  00000-0  69589-4 0  9991"},{"EPHEMERIS_TYPE":"0","GP_ID":"223637215","ELEMENT_SET_NO":"999","INCLINATION":"53.2145","SEMIMAJOR_AXIS":"6917.851","RA_OF_ASC_NODE":"67.8985","NORAD_CAT_ID":"51795","MEAN_ANOMALY":"254.6334","FILE":"3759906","EPOCH":"2023-01-24T10:34:29.450496","MEAN_ELEMENT_THEORY":"SGP4","PERIOD":"95.437","SITE":"AFWTR","ARG_OF_PERICENTER":"105.4767","MEAN_MOTION_DDOT":"0.0000000000000","CENTER_NAME":"EARTH","OBJECT_TYPE":"PAYLOAD","REF_FRAME":"TEME","APOAPSIS":"540.396","CLASSIFICATION_TYPE":"U","PERIAPSIS":"539.036","RCS_SIZE":"LARGE","DECAY_DATE":null,"OBJECT_ID":"2022-017AD","TIME_SYSTEM":"UTC","TLE_LINE2":"2 51795  53.2145  67.8985 0000983 105.4767 254.6334 15.08849752 51789","MEAN_MOTION_DOT":"0.00024564","REV_AT_EPOCH":"5178","LAUNCH_DATE":"2022-02-25","OBJECT_NAME":"STARLINK-3586","ECCENTRICITY":"0.00009830","MEAN_MOTION":"15.08849752","COUNTRY_CODE":"US","TLE_LINE1":"1 51795U 22017AD  23024.44061864  .00024564  00000-0  15557-2 0  9999","BSTAR":"0.00155570000000"},{"CLASSIFICATION_TYPE":"U","APOAPSIS":"540.611","REF_FRAME":"TEME","PERIAPSIS":"538.861","TIME_SYSTEM":"UTC","OBJECT_ID":"2022-017AE","DECAY_DATE":null,"RCS_SIZE":"LARGE","MEAN_MOTION_DOT":"0.00003454","TLE_LINE2":"2 51796  53.2163  67.9650 0001265  78.7862 281.3273 15.08843119 51771","ECCENTRICITY":"0.00012650","MEAN_MOTION":"15.08843119","OBJECT_NAME":"STARLINK-3630","LAUNCH_DATE":"2022-02-25","REV_AT_EPOCH":"5177","COUNTRY_CODE":"US","TLE_LINE1":"1 51796U 22017AE  23024.42589682  .00003454  00000-0  23497-3 0  9999","BSTAR":"0.00023497000000","ELEMENT_SET_NO":"999","EPHEMERIS_TYPE":"0","GP_ID":"223632037","INCLINATION":"53.2163","RA_OF_ASC_NODE":"67.9650","SEMIMAJOR_AXIS":"6917.871","NORAD_CAT_ID":"51796","MEAN_ANOMALY":"281.3273","FILE":"3759698","EPOCH":"2023-01-24T10:13:17.485248","ARG_OF_PERICENTER":"78.7862","SITE":"AFWTR","PERIOD":"95.437","MEAN_ELEMENT_THEORY":"SGP4","OBJECT_TYPE":"PAYLOAD","CENTER_NAME":"EARTH","MEAN_MOTION_DDOT":"0.0000000000000"},{"NORAD_CAT_ID":"51797","MEAN_ANOMALY":"283.9641","SEMIMAJOR_AXIS":"6909.517","RA_OF_ASC_NODE":"72.1376","INCLINATION":"53.2156","ELEMENT_SET_NO":"999","GP_ID":"223608994","EPHEMERIS_TYPE":"0","CENTER_NAME":"EARTH","MEAN_MOTION_DDOT":"0.0000000000000","OBJECT_TYPE":"PAYLOAD","SITE":"AFWTR","MEAN_ELEMENT_THEORY":"SGP4","PERIOD":"95.265","ARG_OF_PERICENTER":"76.1787","EPOCH":"2023-01-23T10:07:42.209184","FILE":"3758618","TLE_LINE2":"2 51797  53.2156  72.1376 0003909  76.1787 283.9641 15.11580318 51682","MEAN_MOTION_DOT":"0.00047319","OBJECT_ID":"2022-017AF","DECAY_DATE":null,"RCS_SIZE":"LARGE","TIME_SYSTEM":"UTC","PERIAPSIS":"528.681","REF_FRAME":"TEME","CLASSIFICATION_TYPE":"U","APOAPSIS":"534.083","BSTAR":"0.00275540000000","TLE_LINE1":"1 51797U 22017AF  23023.42201631  .00047319  00000-0  27554-2 0  9999","COUNTRY_CODE":"US","LAUNCH_DATE":"2022-02-25","REV_AT_EPOCH":"5168","MEAN_MOTION":"15.11580318","ECCENTRICITY":"0.00039090","OBJECT_NAME":"STARLINK-3627"},{"RA_OF_ASC_NODE":"67.6803","SEMIMAJOR_AXIS":"6917.781","NORAD_CAT_ID":"51798","MEAN_ANOMALY":"264.4474","EPHEMERIS_TYPE":"0","GP_ID":"223637881","ELEMENT_SET_NO":"999","INCLINATION":"53.2179","ARG_OF_PERICENTER":"95.6664","PERIOD":"95.436","MEAN_ELEMENT_THEORY":"SGP4","SITE":"AFWTR","OBJECT_TYPE":"PAYLOAD","MEAN_MOTION_DDOT":"0.0000000000000","CENTER_NAME":"EARTH","FILE":"3760005","EPOCH":"2023-01-24T11:43:22.696896","TIME_SYSTEM":"UTC","DECAY_DATE":null,"RCS_SIZE":"LARGE","OBJECT_ID":"2022-017AG","MEAN_MOTION_DOT":"0.00027561","TLE_LINE2":"2 51798  53.2179  67.6803 0001277  95.6664 264.4474 15.08872423 51830","APOAPSIS":"540.530","CLASSIFICATION_TYPE":"U","REF_FRAME":"TEME","PERIAPSIS":"538.763","TLE_LINE1":"1 51798U 22017AG  23024.48845714  .00027561  00000-0  17415-2 0  9995","BSTAR":"0.00174150000000","OBJECT_NAME":"STARLINK-3634","ECCENTRICITY":"0.00012770","MEAN_MOTION":"15.08872423","REV_AT_EPOCH":"5183","LAUNCH_DATE":"2022-02-25","COUNTRY_CODE":"US"}];
